MALLIGYONG-1            
1 58400U 23179A   24127.50419553  .00008019  00000+0  35049-3 0  9998
2 58400  97.4098  14.9847 0010753  56.8378 303.3889 15.22305695 25382
